SL-16 R/B               
1 25400U 98043G   26050.48909833  .00000057  00000+0  42790-4 0  9999
2 25400  98.8224   3.7271 0010904  69.2461 290.9886 14.26045202436391
SL-16 R/B               
1 25407U 98045B   26050.49111271  .00000168  00000+0  10915-3 0  9996
2 25407  71.0094 219.8434 0005818  39.8078 320.3471 14.16190535424521
ISS (ZARYA)             
1 25544U 98067A   26049.79608032  .00009878  00000+0  18896-3 0  9992
2 25544  51.6323 165.7431 0010935 112.1599 248.0551 15.48691264553403
CZ-4B R/B               
1 25732U 99025C   26050.26451072  .00000049  00000+0  44406-4 0  9998
2 25732  98.6666  94.9792 0037742  39.3382  84.1834 14.18261519385555
OKEAN-O                 
1 25860U 99039A   26050.13118044  .00000614  00000+0  87404-4 0  9993
2 25860  97.9484 110.2076 0001724  79.1594 280.9812 14.80303557431644
SL-16 R/B               
1 25861U 99039B   26050.12856665  .00000505  00000+0  70879-4 0  9998
2 25861  98.0008 109.2490 0013865 321.8331  38.1899 14.81703818434110
DELTA 2 R/B             
1 25876U 99041E   26050.31864655  .00001611  00000+0  29675-3 0  9992
2 25876  51.7662  14.6458 0502214 294.1797  60.7420 14.11768118360431
HELIOS 1B               
1 25977U 99064A   26050.28439133  .00001749  00000+0  19886-3 0  9999
2 25977  98.1717 311.9853 0002337 100.1374 260.0105 14.87617426682529
TERRA                   
1 25994U 99068A   26050.43911721  .00000407  00000+0  92155-4 0  9998
2 25994  97.9634 104.5674 0001395 205.6704 267.5535 14.60993809392419
SL-16 R/B               
1 26070U 00006B   26050.50178164 -.00000024  00000+0  12258-4 0  9994
2 26070  71.0023 136.0812 0017913 215.5390 144.4541 14.15818321345983
TITAN 4B R/B            
1 26474U 00047B   26050.47445126  .00002805  00000+0  18074-3 0  9997
2 26474  67.9878  91.7257 0037431  57.4544 303.0212 15.09391986390169
ENVISAT                 
1 27386U 02009A   26050.47396064  .00000109  00000+0  49308-4 0  9996
2 27386  98.3699   4.5087 0001361  87.2351  23.7689 14.39029637256555
